[Satellite]
VERSION=1.1
NAME=GORIZONT 29
NICKNAME=GORIZONT 29
TLE1=1 22907U 93072A   15053.49910620  .00000064  00000-0  00000+0 0  9995
TLE2=2 22907  14.1690  24.7712 0010951 249.3974 280.6605  1.00125507 77811
